ONEWEB-0549             
1 56051U 23043F   25277.76543381  .00000083  00000+0  17001-3 0  9991
2 56051  87.9179 294.9570 0001928 100.7453 259.3898 13.21826292124485
ONEWEB-0550             
1 56052U 23043G   25277.75281535  .00000046  00000+0  78832-4 0  9990
2 56052  87.9176 294.9544 0001869  87.9724 272.1624 13.21825760124484
ONEWEB-0551             
1 56053U 23043H   25277.83078716 -.00000034  00000+0 -12370-3 0  9998
2 56053  87.8990 310.1965 0001839 102.2704 257.8632 13.15547146122829
ONEWEB-0552             
1 56054U 23043J   25277.74648508  .00000040  00000+0  64649-4 0  9993
2 56054  87.9173 294.9641 0001665  99.2580 260.8742 13.21828020124488
ONEWEB-0553             
1 56055U 23043K   25277.75615394 -.00000024  00000+0 -95699-4 0  9995
2 56055  87.8968 279.6701 0002167  82.8432 277.2945 13.16592484125360
ONEWEB-0554             
1 56056U 23043L   25277.74349436 -.00000033  00000+0 -12065-3 0  9991
2 56056  87.8958 279.6954 0001781  83.0634 277.0700 13.16594739125348
ONEWEB-0555             
1 56057U 23043M   25277.70548332  .00000119  00000+0  27724-3 0  9995
2 56057  87.8972 279.6750 0002362  81.5900 278.5498 13.16593596125344
ONEWEB-0557             
1 56058U 23043N   25277.71973185  .00000042  00000+0  75941-4 0  9995
2 56058  87.8959 279.6884 0002280  54.5451 305.5892 13.16594256125341
